     2.10           N: GPS/GNGS NAV DATA                    RINEX VERSION / TYPE
Assistant 1.0                           30-05-18 21:35      PGM / RUN BY / DATE 
    17                                                      LEAP SECONDS        
                                                            END OF HEADER       
14 18  5 30  2  0  0.0 -9.71634872258D-05 -2.27373675443D-13  0.00000000000D+00 
     4.30000000000D+01 -1.28437500000D+01  4.60697761340D-09 -5.01632139975D-01 
    -6.61239027977D-07  9.90521139465D-03  8.70041549206D-06  5.15358853340D+03 
     2.66400000000D+05 -8.75443220139D-08 -5.81958253606D-01  1.09896063805D-07 
     9.61092193348D-01  2.12593750000D+02 -1.95169846343D+00 -8.13748181592D-09 
    -6.76456748567D-10  1.00000000000D+00  2.00300000000D+03  0.00000000000D+00 
     2.00000000000D+00  0.00000000000D+00 -9.77888703346D-09  4.30000000000D+01 
     4.33630000000D+04  4.00000000000D+00  0.00000000000D+00  0.00000000000D+00 
22 18  5 30  2  0  0.0 -4.08673658967D-04 -1.28466126625D-11  0.00000000000D+00 
     8.80000000000D+01  2.39375000000D+01  5.89703134931D-09 -8.16154127387D-01 
     1.27591192722D-06  7.37835629843D-03  5.07198274136D-06  5.15379267311D+03 
     2.66400000000D+05 -1.35973095894D-07 -1.76562039665D+00 -7.45058059692D-09 
     9.24664623239D-01  2.62000000000D+02 -1.53582743084D+00 -8.77965142201D-09 
     2.60367988229D-10  1.00000000000D+00  2.00300000000D+03  0.00000000000D+00 
     2.00000000000D+00  0.00000000000D+00 -1.76951289177D-08  8.80000000000D+01 
     4.33630000000D+04  4.00000000000D+00  0.00000000000D+00  0.00000000000D+00 
16 18  5 30  2  0  0.0  2.31885351241D-05 -1.25055521494D-12  0.00000000000D+00 
     4.20000000000D+01  3.61250000000D+01  4.03873965829D-09  7.98106370368D-01 
     1.94273889065D-06  1.00309435511D-02  1.33737921715D-06  5.15363920212D+03 
     2.66400000000D+05 -7.07805156708D-08  1.51710406607D+00  1.60187482834D-07 
     9.86724621773D-01  3.66593750000D+02  5.18021677888D-01 -8.19462705339D-09 
     8.21462788651D-11  1.00000000000D+00  2.00300000000D+03  0.00000000000D+00 
     2.00000000000D+00  0.00000000000D+00 -1.07102096081D-08  4.20000000000D+01 
     4.33630000000D+04  4.00000000000D+00  0.00000000000D+00  0.00000000000D+00 
 3 18  5 30  2  0  0.0  7.97938555479D-05  7.04858393874D-12  0.00000000000D+00 
     8.70000000000D+01  1.80000000000D+01  4.98163607657D-09  3.09585778946D+00 
     8.47503542900D-07  1.39484170359D-03  5.13158738613D-06  5.15374036217D+03 
     2.66400000000D+05 -6.14672899246D-08 -1.70592403925D+00 -2.04890966415D-08 
     9.60551789946D-01  2.78625000000D+02  4.32158425179D-01 -8.13962476233D-09 
     1.78936024832D-10  1.00000000000D+00  2.00300000000D+03  0.00000000000D+00 
     2.00000000000D+00  0.00000000000D+00  2.32830643654D-09  8.70000000000D+01 
     4.33730000000D+04  4.00000000000D+00  0.00000000000D+00  0.00000000000D+00 
26 18  5 30  2  0  0.0 -1.32675282657D-04  1.25055521494D-11  0.00000000000D+00 
     9.10000000000D+01  5.40000000000D+01  4.72876840076D-09  1.68577580982D+00 
     2.79210507870D-06  2.79419159051D-03  1.26473605633D-06  5.15366607666D+03 
     2.66400000000D+05  7.45058059692D-09  1.41634319441D+00  3.53902578354D-08 
     9.55514630917D-01  3.51812500000D+02  1.28163126669D-01 -8.45606651483D-09 
     1.76435920693D-10  1.00000000000D+00  2.00300000000D+03  0.00000000000D+00 
     2.00000000000D+00  0.00000000000D+00  7.45058059692D-09  9.10000000000D+01 
     4.33730000000D+04  4.00000000000D+00  0.00000000000D+00  0.00000000000D+00 
27 18  5 30  2  0  0.0  3.67751345038D-04 -1.13686837722D-12  0.00000000000D+00 
     6.30000000000D+01 -1.16375000000D+02  4.16017328792D-09 -1.33357599131D-01 
    -5.96605241299D-06  5.96673716791D-03  5.54323196411D-06  5.15368600655D+03 
     2.66400000000D+05  4.09781932831D-08  2.47864329353D+00  2.04890966415D-08 
     9.77545340401D-01  2.82562500000D+02  4.27651101431D-01 -8.05354974839D-09 
    -1.75364447490D-10  1.00000000000D+00  2.00300000000D+03  0.00000000000D+00 
     2.00000000000D+00  0.00000000000D+00  1.39698386192D-09  6.30000000000D+01 
     4.33730000000D+04  4.00000000000D+00  0.00000000000D+00  0.00000000000D+00 
23 18  5 30  2  0  0.0 -2.16511543840D-04  4.54747350886D-13  0.00000000000D+00 
     5.00000000000D+01 -1.57187500000D+01  4.91377610707D-09 -1.46038219563D+00 
    -9.31322574615D-07  1.25435261289D-02  7.99447298050D-06  5.15378765678D+03 
     2.66400000000D+05  2.81259417534D-07 -6.73414546419D-01 -3.91155481339D-08 
     9.43542555546D-01  2.13281250000D+02 -2.35973603346D+00 -7.99247577584D-09 
    -6.20740142033D-10  1.00000000000D+00  2.00300000000D+03  0.00000000000D+00 
     2.00000000000D+00  0.00000000000D+00 -2.00234353542D-08  5.00000000000D+01 
     4.33730000000D+04  4.00000000000D+00  0.00000000000D+00  0.00000000000D+00 
29 18  5 30  2  0  0.0  4.41458076239D-04 -6.48014975013D-12  0.00000000000D+00 
     3.80000000000D+01 -1.19343750000D+02  3.95409327528D-09  8.31704712503D-01 
    -6.38701021671D-06  7.89868063293D-04  5.93252480030D-06  5.15369022179D+03 
     2.66400000000D+05  1.67638063431D-08  2.54331446186D+00 -1.11758708954D-08 
     9.84151518570D-01  2.75187500000D+02  1.17205916922D+00 -7.86389899153D-09 
    -1.62149611325D-10  1.00000000000D+00  2.00300000000D+03  0.00000000000D+00 
     2.00000000000D+00  0.00000000000D+00 -1.02445483208D-08  3.80000000000D+01 
     4.33730000000D+04  4.00000000000D+00  0.00000000000D+00  0.00000000000D+00 
31 18  5 30  1 59 44.0  1.18186231703D-04 -2.61479726760D-12  0.00000000000D+00 
     2.00000000000D+00  1.07062500000D+02  4.04659712844D-09  3.09845435641D+00 
     5.49666583538D-06  8.76135379076D-03  9.69879329205D-06  5.15367525673D+03 
     2.66384000000D+05 -6.70552253723D-08  4.17931878940D-01  3.53902578354D-08 
     9.63638921600D-01  1.95906250000D+02 -1.29116833686D-01 -7.69532054099D-09 
    -1.96436753808D-11  1.00000000000D+00  2.00300000000D+03  0.00000000000D+00 
     2.00000000000D+00  0.00000000000D+00 -1.35041773319D-08  2.00000000000D+00 
     4.33730000000D+04  4.00000000000D+00  0.00000000000D+00  0.00000000000D+00 
32 18  5 30  2  0  0.0 -5.02350274473D-04  5.68434188608D-12  0.00000000000D+00 
     4.20000000000D+01 -2.23125000000D+01  4.72198240381D-09  5.70814233755D-01 
    -1.06729567051D-06  2.14765407145D-03  8.10064375401D-06  5.15366689682D+03 
     2.66400000000D+05 -7.45058059692D-09 -6.66792201543D-01  3.72529029846D-08 
     9.57103118569D-01  2.20843750000D+02 -2.55377874268D+00 -8.04926385558D-09 
    -6.90028742467D-10  1.00000000000D+00  2.00300000000D+03  0.00000000000D+00 
     2.00000000000D+00  0.00000000000D+00  4.65661287308D-10  4.20000000000D+01 
     4.33730000000D+04  4.00000000000D+00  0.00000000000D+00  0.00000000000D+00 
21 18  5 30  2  0  0.0 -3.88440676033D-04  5.11590769747D-12  0.00000000000D+00 
     8.10000000000D+01 -5.24687500000D+01  4.63590738987D-09  2.16731760365D+00 
    -2.77906656265D-06  2.43873659056D-02  1.06748193502D-05  5.15370261383D+03 
     2.66400000000D+05  3.83704900742D-07 -2.80298870563D+00 -2.30967998505D-07 
     9.44234695737D-01  1.62187500000D+02 -1.55545453081D+00 -7.53638534927D-09 
     3.38228374284D-10  1.00000000000D+00  2.00300000000D+03  0.00000000000D+00 
     2.00000000000D+00  0.00000000000D+00 -1.02445483208D-08  8.10000000000D+01 
     4.35630000000D+04  4.00000000000D+00  0.00000000000D+00  0.00000000000D+00 
 8 18  5 30  2  0  0.0 -1.02959107608D-04 -1.25055521494D-12  0.00000000000D+00 
     4.50000000000D+01 -1.19031250000D+02  4.32410868791D-09  1.57027533193D-01 
    -6.13369047642D-06  3.46450344659D-03  5.57675957680D-06  5.15357324409D+03 
     2.66400000000D+05  1.86264514923D-09  2.47016566717D+00 -5.58793544769D-08 
     9.69344942868D-01  2.73750000000D+02 -4.26830657473D-01 -8.11390940547D-09 
    -1.67149819604D-10  1.00000000000D+00  2.00300000000D+03  0.00000000000D+00 
     2.00000000000D+00  0.00000000000D+00  5.12227416039D-09  4.50000000000D+01 
     4.35880000000D+04  4.00000000000D+00  0.00000000000D+00  0.00000000000D+00 
 9 18  5 30  1 59 44.0  5.14381565154D-04  3.41060513165D-13  0.00000000000D+00 
     4.90000000000D+01 -1.76875000000D+01  4.75805533496D-09  3.53094369512D-02 
    -9.74163413048D-07  9.26380744204D-04  8.33533704281D-06  5.15361292267D+03 
     2.66384000000D+05  7.45058059692D-09 -6.71765586122D-01  2.79396772385D-08 
     9.52719080780D-01  2.14000000000D+02  1.85625124525D+00 -8.02854870699D-09 
    -6.77885379504D-10  1.00000000000D+00  2.00300000000D+03  0.00000000000D+00 
     2.00000000000D+00  0.00000000000D+00  9.31322574615D-10  4.90000000000D+01 
     4.40580000000D+04  4.00000000000D+00  0.00000000000D+00  0.00000000000D+00 
